STARLINK-2278_new
1 18026C 21024BB  21326.18544429 -.00006566  00000-0 -43989-3 0  3265
2 18026  53.0349 177.9926 0001934  76.6504 231.9031 15.06408942    11
STARLINK-2278_old
1 28026C 21024BB  21325.10641206  .00007968  00000-0  53387-3 0  3254
2 28026  53.0346 182.8388 0001895  77.0793 136.6076 15.06389715    12
